STARLINK-36404          
1 67664U 26022S   26045.58335647  .00063451  00000+0  33000-3 0  9996
2 67664  97.2797  78.4407 0001066  86.9470 249.5450 15.80789383  3148
STARLINK-36399          
1 67665U 26022T   26045.58335647  .00049194  00000+0  25638-3 0  9993
2 67665  97.2798  78.4432 0001241  74.6847 266.3530 15.80793912  3144
STARLINK-36365          
1 67666U 26022U   26045.58335647 -.00092453  00000+0 -48647-3 0  9997
2 67666  97.2800  78.4467 0000767 102.8753 245.2620 15.80843197  3179
STARLINK-36622          
1 67667U 26022V   26045.58335647 -.00495522  00000+0 -26974-2 0  9990
2 67667  97.2800  78.4499 0000752  81.7008 273.8755 15.81126296  3178
STARLINK-36625          
1 67668U 26022W   26045.58335647 -.01001613  00000+0 -56652-2 0  9992
2 67668  97.2795  78.4526 0001338  75.3838 288.2652 15.81554291  3170
STARLINK-36639          
1 67669U 26022X   26045.58335647 -.01512541  00000+0 -84641-2 0  9999
2 67669  97.2799  78.4571 0001302  91.3713 279.9587 15.82020284  3171
STARLINK-36596          
1 67670U 26022Y   26045.58335647 -.01612472  00000+0 -89909-2 0  9997
2 67670  97.2793  78.4588 0001025 102.6093 275.0834 15.82291082  3172
STARLINK-36297          
1 67671U 26022Z   26045.58335647 -.01671166  00000+0 -91781-2 0  9994
2 67671  97.2789  78.4638 0001491  81.3045 306.9508 15.82720582  3175
STARLINK-36616          
1 67672U 26022AA  26045.58335647 -.01675704  00000+0 -92905-2 0  9996
2 67672  97.2793  78.4610 0001195  88.4933 294.8413 15.82532776  3172
COSMOS 2600             
1 67674U 26023A   26045.64111528  .00059283  00000+0  28809-3 0  9994
2 67674  96.6499 122.0055 0001696  58.3512 301.7924 15.82277910  1409
2026-023B               
1 67675U 26023B   26045.85100727  .00007467  00000+0  32432-3 0  9991
2 67675  96.6408 121.4477 0017592 212.0712 147.9458 15.22404378  1387
2026-023C               
1 67676U 26023C   26045.85067803  .00010944  00000+0  47267-3 0  9995
2 67676  96.6443 121.4605 0018815 201.4823 158.5628 15.22477176  1545
