CCSDS_OMM_VERS = 2.0
CREATION_DATE  = 
ORIGINATOR     = 

OBJECT_NAME    = STARLINK-36404
OBJECT_ID      = 2026-022S
CENTER_NAME    = EARTH
REF_FRAME      = TEME
TIME_SYSTEM    = UTC
MEAN_ELEMENT_THEORY = SGP/SGP4

EPOCH          = 2026-02-14T14:00:01.999008
MEAN_MOTION    = 15.80789383
ECCENTRICITY   = .0001066
INCLINATION    = 97.2797
RA_OF_ASC_NODE = 78.4407
ARG_OF_PERICENTER = 86.9470
MEAN_ANOMALY   = 249.5450

EPHEMERIS_TYPE = 0
CLASSIFICATION_TYPE = U
NORAD_CAT_ID   = 67664
ELEMENT_SET_NO = 999
REV_AT_EPOCH   = 314
BSTAR          = .33E-3
MEAN_MOTION_DOT = .63451E-3
MEAN_MOTION_DDOT = 0

CCSDS_OMM_VERS = 2.0
CREATION_DATE  = 
ORIGINATOR     = 

OBJECT_NAME    = STARLINK-36399
OBJECT_ID      = 2026-022T
CENTER_NAME    = EARTH
REF_FRAME      = TEME
TIME_SYSTEM    = UTC
MEAN_ELEMENT_THEORY = SGP/SGP4

EPOCH          = 2026-02-14T14:00:01.999008
MEAN_MOTION    = 15.80793912
ECCENTRICITY   = .0001241
INCLINATION    = 97.2798
RA_OF_ASC_NODE = 78.4432
ARG_OF_PERICENTER = 74.6847
MEAN_ANOMALY   = 266.3530

EPHEMERIS_TYPE = 0
CLASSIFICATION_TYPE = U
NORAD_CAT_ID   = 67665
ELEMENT_SET_NO = 999
REV_AT_EPOCH   = 314
BSTAR          = .25638E-3
MEAN_MOTION_DOT = .49194E-3
MEAN_MOTION_DDOT = 0

CCSDS_OMM_VERS = 2.0
CREATION_DATE  = 
ORIGINATOR     = 

OBJECT_NAME    = STARLINK-36365
OBJECT_ID      = 2026-022U
CENTER_NAME    = EARTH
REF_FRAME      = TEME
TIME_SYSTEM    = UTC
MEAN_ELEMENT_THEORY = SGP/SGP4

EPOCH          = 2026-02-14T14:00:01.999008
MEAN_MOTION    = 15.80843197
ECCENTRICITY   = .0000767
INCLINATION    = 97.2800
RA_OF_ASC_NODE = 78.4467
ARG_OF_PERICENTER = 102.8753
MEAN_ANOMALY   = 245.2620

EPHEMERIS_TYPE = 0
CLASSIFICATION_TYPE = U
NORAD_CAT_ID   = 67666
ELEMENT_SET_NO = 999
REV_AT_EPOCH   = 317
BSTAR          = -.48647E-3
MEAN_MOTION_DOT = -.92453E-3
MEAN_MOTION_DDOT = 0

CCSDS_OMM_VERS = 2.0
CREATION_DATE  = 
ORIGINATOR     = 

OBJECT_NAME    = STARLINK-36622
OBJECT_ID      = 2026-022V
CENTER_NAME    = EARTH
REF_FRAME      = TEME
TIME_SYSTEM    = UTC
MEAN_ELEMENT_THEORY = SGP/SGP4

EPOCH          = 2026-02-14T14:00:01.999008
MEAN_MOTION    = 15.81126296
ECCENTRICITY   = .0000752
INCLINATION    = 97.2800
RA_OF_ASC_NODE = 78.4499
ARG_OF_PERICENTER = 81.7008
MEAN_ANOMALY   = 273.8755

EPHEMERIS_TYPE = 0
CLASSIFICATION_TYPE = U
NORAD_CAT_ID   = 67667
ELEMENT_SET_NO = 999
REV_AT_EPOCH   = 317
BSTAR          = -.26974E-2
MEAN_MOTION_DOT = -.495522E-2
MEAN_MOTION_DDOT = 0

CCSDS_OMM_VERS = 2.0
CREATION_DATE  = 
ORIGINATOR     = 

OBJECT_NAME    = STARLINK-36625
OBJECT_ID      = 2026-022W
CENTER_NAME    = EARTH
REF_FRAME      = TEME
TIME_SYSTEM    = UTC
MEAN_ELEMENT_THEORY = SGP/SGP4

EPOCH          = 2026-02-14T14:00:01.999008
MEAN_MOTION    = 15.81554291
ECCENTRICITY   = .0001338
INCLINATION    = 97.2795
RA_OF_ASC_NODE = 78.4526
ARG_OF_PERICENTER = 75.3838
MEAN_ANOMALY   = 288.2652

EPHEMERIS_TYPE = 0
CLASSIFICATION_TYPE = U
NORAD_CAT_ID   = 67668
ELEMENT_SET_NO = 999
REV_AT_EPOCH   = 317
BSTAR          = -.56652E-2
MEAN_MOTION_DOT = -.1001613E-1
MEAN_MOTION_DDOT = 0

CCSDS_OMM_VERS = 2.0
CREATION_DATE  = 
ORIGINATOR     = 

OBJECT_NAME    = STARLINK-36639
OBJECT_ID      = 2026-022X
CENTER_NAME    = EARTH
REF_FRAME      = TEME
TIME_SYSTEM    = UTC
MEAN_ELEMENT_THEORY = SGP/SGP4

EPOCH          = 2026-02-14T14:00:01.999008
MEAN_MOTION    = 15.82020284
ECCENTRICITY   = .0001302
INCLINATION    = 97.2799
RA_OF_ASC_NODE = 78.4571
ARG_OF_PERICENTER = 91.3713
MEAN_ANOMALY   = 279.9587

EPHEMERIS_TYPE = 0
CLASSIFICATION_TYPE = U
NORAD_CAT_ID   = 67669
ELEMENT_SET_NO = 999
REV_AT_EPOCH   = 317
BSTAR          = -.84641E-2
MEAN_MOTION_DOT = -.1512541E-1
MEAN_MOTION_DDOT = 0

CCSDS_OMM_VERS = 2.0
CREATION_DATE  = 
ORIGINATOR     = 

OBJECT_NAME    = STARLINK-36596
OBJECT_ID      = 2026-022Y
CENTER_NAME    = EARTH
REF_FRAME      = TEME
TIME_SYSTEM    = UTC
MEAN_ELEMENT_THEORY = SGP/SGP4

EPOCH          = 2026-02-14T14:00:01.999008
MEAN_MOTION    = 15.82291082
ECCENTRICITY   = .0001025
INCLINATION    = 97.2793
RA_OF_ASC_NODE = 78.4588
ARG_OF_PERICENTER = 102.6093
MEAN_ANOMALY   = 275.0834

EPHEMERIS_TYPE = 0
CLASSIFICATION_TYPE = U
NORAD_CAT_ID   = 67670
ELEMENT_SET_NO = 999
REV_AT_EPOCH   = 317
BSTAR          = -.89909E-2
MEAN_MOTION_DOT = -.1612472E-1
MEAN_MOTION_DDOT = 0

CCSDS_OMM_VERS = 2.0
CREATION_DATE  = 
ORIGINATOR     = 

OBJECT_NAME    = STARLINK-36297
OBJECT_ID      = 2026-022Z
CENTER_NAME    = EARTH
REF_FRAME      = TEME
TIME_SYSTEM    = UTC
MEAN_ELEMENT_THEORY = SGP/SGP4

EPOCH          = 2026-02-14T14:00:01.999008
MEAN_MOTION    = 15.82720582
ECCENTRICITY   = .0001491
INCLINATION    = 97.2789
RA_OF_ASC_NODE = 78.4638
ARG_OF_PERICENTER = 81.3045
MEAN_ANOMALY   = 306.9508

EPHEMERIS_TYPE = 0
CLASSIFICATION_TYPE = U
NORAD_CAT_ID   = 67671
ELEMENT_SET_NO = 999
REV_AT_EPOCH   = 317
BSTAR          = -.91781E-2
MEAN_MOTION_DOT = -.1671166E-1
MEAN_MOTION_DDOT = 0

CCSDS_OMM_VERS = 2.0
CREATION_DATE  = 
ORIGINATOR     = 

OBJECT_NAME    = STARLINK-36616
OBJECT_ID      = 2026-022AA
CENTER_NAME    = EARTH
REF_FRAME      = TEME
TIME_SYSTEM    = UTC
MEAN_ELEMENT_THEORY = SGP/SGP4

EPOCH          = 2026-02-14T14:00:01.999008
MEAN_MOTION    = 15.82532776
ECCENTRICITY   = .0001195
INCLINATION    = 97.2793
RA_OF_ASC_NODE = 78.4610
ARG_OF_PERICENTER = 88.4933
MEAN_ANOMALY   = 294.8413

EPHEMERIS_TYPE = 0
CLASSIFICATION_TYPE = U
NORAD_CAT_ID   = 67672
ELEMENT_SET_NO = 999
REV_AT_EPOCH   = 317
BSTAR          = -.92905E-2
MEAN_MOTION_DOT = -.1675704E-1
MEAN_MOTION_DDOT = 0

CCSDS_OMM_VERS = 2.0
CREATION_DATE  = 
ORIGINATOR     = 

OBJECT_NAME    = COSMOS 2600
OBJECT_ID      = 2026-023A
CENTER_NAME    = EARTH
REF_FRAME      = TEME
TIME_SYSTEM    = UTC
MEAN_ELEMENT_THEORY = SGP/SGP4

EPOCH          = 2026-02-14T15:23:12.360192
MEAN_MOTION    = 15.82277910
ECCENTRICITY   = .0001696
INCLINATION    = 96.6499
RA_OF_ASC_NODE = 122.0055
ARG_OF_PERICENTER = 58.3512
MEAN_ANOMALY   = 301.7924

EPHEMERIS_TYPE = 0
CLASSIFICATION_TYPE = U
NORAD_CAT_ID   = 67674
ELEMENT_SET_NO = 999
REV_AT_EPOCH   = 140
BSTAR          = .28809E-3
MEAN_MOTION_DOT = .59283E-3
MEAN_MOTION_DDOT = 0

CCSDS_OMM_VERS = 2.0
CREATION_DATE  = 
ORIGINATOR     = 

OBJECT_NAME    = 2026-023B
OBJECT_ID      = 2026-023B
CENTER_NAME    = EARTH
REF_FRAME      = TEME
TIME_SYSTEM    = UTC
MEAN_ELEMENT_THEORY = SGP/SGP4

EPOCH          = 2026-02-14T20:25:27.028128
MEAN_MOTION    = 15.22404378
ECCENTRICITY   = .0017592
INCLINATION    = 96.6408
RA_OF_ASC_NODE = 121.4477
ARG_OF_PERICENTER = 212.0712
MEAN_ANOMALY   = 147.9458

EPHEMERIS_TYPE = 0
CLASSIFICATION_TYPE = U
NORAD_CAT_ID   = 67675
ELEMENT_SET_NO = 999
REV_AT_EPOCH   = 138
BSTAR          = .32432E-3
MEAN_MOTION_DOT = .7467E-4
MEAN_MOTION_DDOT = 0

CCSDS_OMM_VERS = 2.0
CREATION_DATE  = 
ORIGINATOR     = 

OBJECT_NAME    = 2026-023C
OBJECT_ID      = 2026-023C
CENTER_NAME    = EARTH
REF_FRAME      = TEME
TIME_SYSTEM    = UTC
MEAN_ELEMENT_THEORY = SGP/SGP4

EPOCH          = 2026-02-14T20:24:58.581792
MEAN_MOTION    = 15.22477176
ECCENTRICITY   = .0018815
INCLINATION    = 96.6443
RA_OF_ASC_NODE = 121.4605
ARG_OF_PERICENTER = 201.4823
MEAN_ANOMALY   = 158.5628

EPHEMERIS_TYPE = 0
CLASSIFICATION_TYPE = U
NORAD_CAT_ID   = 67676
ELEMENT_SET_NO = 999
REV_AT_EPOCH   = 154
BSTAR          = .47267E-3
MEAN_MOTION_DOT = .10944E-3
MEAN_MOTION_DDOT = 0

